{
    "links": {
        "self": "http://www.neowsapp.com/rest/v1/neo/3823893?api_key=iIulBulltgU6a56xZRHN4H3l9WmuAYTsLGpBGhQ2"
    },
    "id": "3823893",
    "neo_reference_id": "3823893",
    "name": "(2018 JW)",
    "designation": "2018 JW",
    "nasa_jpl_url": "http://ssd.jpl.nasa.gov/sbdb.cgi?sstr=3823893",
    "absolute_magnitude_h": 25.9,
    "estimated_diameter": {
        "kilometers": {
            "estimated_diameter_min": 0.0175612318,
            "estimated_diameter_max": 0.0392681082
        },
        "meters": {
            "estimated_diameter_min": 17.561231848,
            "estimated_diameter_max": 39.2681081809
        },
        "miles": {
            "estimated_diameter_min": 0.0109120402,
            "estimated_diameter_max": 0.0244000636
        },
        "feet": {
            "estimated_diameter_min": 57.6155918963,
            "estimated_diameter_max": 128.8323800441
        }
    },
    "is_potentially_hazardous_asteroid": false,
    "close_approach_data": [
        {
            "close_approach_date": "2018-05-06",
            "close_approach_date_full": "2018-May-06 15:59",
            "epoch_date_close_approach": 1525622340000,
            "relative_velocity": {
                "kilometers_per_second": "11.7539469144",
                "kilometers_per_hour": "42314.208891682",
                "miles_per_hour": "26292.4038527232"
            },
            "miss_distance": {
                "astronomical": "0.023082688",
                "lunar": "8.979165632",
                "kilometers": "3453120.95867456",
                "miles": "2145669.867686528"
            },
            "orbiting_body": "Earth"
        }
    ],
    "orbital_data": {
        "orbit_id": "5",
        "orbit_determination_date": "2018-05-16 06:24:15",
        "first_observation_date": "2018-05-07",
        "last_observation_date": "2018-05-16",
        "data_arc_in_days": 9,
        "observations_used": 49,
        "orbit_uncertainty": "8",
        "minimum_orbit_intersection": ".0164276",
        "jupiter_tisserand_invariant": "3.531",
        "epoch_osculation": "2458247.5",
        "eccentricity": ".5646606393034089",
        "semi_major_axis": "2.090252409004166",
        "inclination": "5.28649288057734",
        "ascending_node_longitude": "53.23291036904394",
        "orbital_period": "1103.815595534633",
        "perihelion_distance": ".9099691474303829",
        "perihelion_argument": "126.1560210244959",
        "aphelion_distance": "3.270535670577948",
        "perihelion_time": "2458210.460259862006",
        "mean_anomaly": "12.08019392335128",
        "mean_motion": ".3261414329135602",
        "equinox": "J2000",
        "orbit_class": {
            "orbit_class_type": "APO",
            "orbit_class_description": "Near-Earth asteroid orbits which cross the Earth’s orbit similar to that of 1862 Apollo",
            "orbit_class_range": "a (semi-major axis) > 1.0 AU; q (perihelion) < 1.017 AU"
        }
    },
    "is_sentry_object": false
}